start=new Date('2023-03-22T00:00:00.000Z').valueOf();
sats=[{"MEAN_MOTION_DOT":"0.00024340","REF_FRAME":"TEME","TLE_LINE2":"2 48432  53.0533 332.4452 0001889 102.1873 257.9328 15.06393161103750","FILE":"3866953","PERIOD":"95.593","EPHEMERIS_TYPE":"0","ARG_OF_PERICENTER":"102.1873","APOAPSIS":"548.543","NORAD_CAT_ID":"48432","DECAY_DATE":null,"MEAN_ANOMALY":"257.9328","CLASSIFICATION_TYPE":"U","MEAN_ELEMENT_THEORY":"SGP4","TLE_LINE1":"1 48432U 21040E   23080.87668185  .00024340  00000-0  16476-2 0  9999","RA_OF_ASC_NODE":"332.4452","BSTAR":"0.00164760000000","EPOCH":"2023-03-21T21:02:25.311840","PERIAPSIS":"545.926","OBJECT_NAME":"STARLINK-2680","TIME_SYSTEM":"UTC","REV_AT_EPOCH":"10375","GP_ID":"228619792","ELEMENT_SET_NO":"999","MEAN_MOTION_DDOT":"0.0000000000000","ECCENTRICITY":"0.00018890","CENTER_NAME":"EARTH","OBJECT_TYPE":"PAYLOAD","COUNTRY_CODE":"US","RCS_SIZE":"LARGE","SEMIMAJOR_AXIS":"6925.370","LAUNCH_DATE":"2021-05-09","MEAN_MOTION":"15.06393161","INCLINATION":"53.0533","OBJECT_ID":"2021-040E","SITE":"AFETR"},{"CENTER_NAME":"EARTH","OBJECT_TYPE":"PAYLOAD","ELEMENT_SET_NO":"999","MEAN_MOTION_DDOT":"0.0000000000000","ECCENTRICITY":"0.00012950","OBJECT_ID":"2021-040F","INCLINATION":"53.0543","SITE":"AFETR","COUNTRY_CODE":"US","SEMIMAJOR_AXIS":"6925.162","LAUNCH_DATE":"2021-05-09","RCS_SIZE":"LARGE","MEAN_MOTION":"15.06461008","APOAPSIS":"547.923","ARG_OF_PERICENTER":"75.1244","NORAD_CAT_ID":"48433","CLASSIFICATION_TYPE":"U","MEAN_ANOMALY":"284.9888","DECAY_DATE":null,"REF_FRAME":"TEME","MEAN_MOTION_DOT":"0.00035807","FILE":"3866730","TLE_LINE2":"2 48433  53.0543 340.8458 0001295  75.1244 284.9888 15.06461008103569","EPHEMERIS_TYPE":"0","PERIOD":"95.588","TIME_SYSTEM":"UTC","OBJECT_NAME":"STARLINK-2699","GP_ID":"228588288","REV_AT_EPOCH":"10356","MEAN_ELEMENT_THEORY":"SGP4","TLE_LINE1":"1 48433U 21040F   23080.09293348  .00035807  00000-0  24066-2 0  9993","RA_OF_ASC_NODE":"340.8458","BSTAR":"0.00240660000000","EPOCH":"2023-03-21T02:13:49.452672","PERIAPSIS":"546.130"},{"ECCENTRICITY":"0.00005840","MEAN_MOTION_DDOT":"0.0000000000000","ELEMENT_SET_NO":"999","OBJECT_TYPE":"PAYLOAD","CENTER_NAME":"EARTH","MEAN_MOTION":"15.06377805","RCS_SIZE":"LARGE","SEMIMAJOR_AXIS":"6925.417","LAUNCH_DATE":"2021-05-09","COUNTRY_CODE":"US","SITE":"AFETR","INCLINATION":"53.0538","OBJECT_ID":"2021-040G","EPHEMERIS_TYPE":"0","PERIOD":"95.594","TLE_LINE2":"2 48434  53.0538 342.3594 0000584  64.0746 296.0303 15.06377805103620","FILE":"3866953","MEAN_MOTION_DOT":"0.00022248","REF_FRAME":"TEME","DECAY_DATE":null,"MEAN_ANOMALY":"296.0303","CLASSIFICATION_TYPE":"U","NORAD_CAT_ID":"48434","ARG_OF_PERICENTER":"64.0746","APOAPSIS":"547.686","EPOCH":"2023-03-21T22:04:48.355104","PERIAPSIS":"546.877","BSTAR":"0.00150870000000","RA_OF_ASC_NODE":"342.3594","TLE_LINE1":"1 48434U 21040G   23080.92000411  .00022248  00000-0  15087-2 0  9991","MEAN_ELEMENT_THEORY":"SGP4","REV_AT_EPOCH":"10362","GP_ID":"228618790","TIME_SYSTEM":"UTC","OBJECT_NAME":"STARLINK-2692"},{"TLE_LINE2":"2 48435  53.0540 351.8280 0001129  68.6736 291.4373 15.06398523103486","FILE":"3866953","REF_FRAME":"TEME","MEAN_MOTION_DOT":"0.00031183","PERIOD":"95.592","EPHEMERIS_TYPE":"0","NORAD_CAT_ID":"48435","ARG_OF_PERICENTER":"68.6736","APOAPSIS":"548.000","DECAY_DATE":null,"MEAN_ANOMALY":"291.4373","CLASSIFICATION_TYPE":"U","TLE_LINE1":"1 48435U 21040H   23080.92639247  .00031183  00000-0  21032-2 0  9992","MEAN_ELEMENT_THEORY":"SGP4","EPOCH":"2023-03-21T22:14:00.309408","PERIAPSIS":"546.436","RA_OF_ASC_NODE":"351.8280","BSTAR":"0.00210320000000","TIME_SYSTEM":"UTC","OBJECT_NAME":"STARLINK-2633","REV_AT_EPOCH":"10348","GP_ID":"228619042","MEAN_MOTION_DDOT":"0.0000000000000","ELEMENT_SET_NO":"999","ECCENTRICITY":"0.00011290","OBJECT_TYPE":"PAYLOAD","CENTER_NAME":"EARTH","COUNTRY_CODE":"US","MEAN_MOTION":"15.06398523","RCS_SIZE":"LARGE","SEMIMAJOR_AXIS":"6925.353","LAUNCH_DATE":"2021-05-09","SITE":"AFETR","INCLINATION":"53.0540","OBJECT_ID":"2021-040H"},{"GP_ID":"228588038","REV_AT_EPOCH":"10316","TIME_SYSTEM":"UTC","OBJECT_NAME":"STARLINK-2639","PERIAPSIS":"546.050","EPOCH":"2023-03-21T04:27:46.234656","BSTAR":"0.00255200000000","RA_OF_ASC_NODE":"10.1418","TLE_LINE1":"1 48436U 21040J   23080.18595179  .00038015  00000-0  25520-2 0  9993","MEAN_ELEMENT_THEORY":"SGP4","MEAN_ANOMALY":"237.6893","CLASSIFICATION_TYPE":"U","DECAY_DATE":null,"NORAD_CAT_ID":"48436","ARG_OF_PERICENTER":"122.4226","APOAPSIS":"547.907","PERIOD":"95.587","EPHEMERIS_TYPE":"0","FILE":"3866730","TLE_LINE2":"2 48436  53.0543  10.1418 0001341 122.4226 237.6893 15.06476588103169","MEAN_MOTION_DOT":"0.00038015","REF_FRAME":"TEME","SITE":"AFETR","OBJECT_ID":"2021-040J","INCLINATION":"53.0543","MEAN_MOTION":"15.06476588","LAUNCH_DATE":"2021-05-09","SEMIMAJOR_AXIS":"6925.114","RCS_SIZE":"LARGE","COUNTRY_CODE":"US","OBJECT_TYPE":"PAYLOAD","CENTER_NAME":"EARTH","ECCENTRICITY":"0.00013410","MEAN_MOTION_DDOT":"0.0000000000000","ELEMENT_SET_NO":"999"},{"SITE":"AFETR","INCLINATION":"53.0545","OBJECT_ID":"2021-040K","MEAN_MOTION":"15.06474218","LAUNCH_DATE":"2021-05-09","SEMIMAJOR_AXIS":"6925.121","RCS_SIZE":"LARGE","COUNTRY_CODE":"US","OBJECT_TYPE":"PAYLOAD","CENTER_NAME":"EARTH","ECCENTRICITY":"0.00014900","MEAN_MOTION_DDOT":"0.0000000000000","ELEMENT_SET_NO":"999","GP_ID":"228587789","REV_AT_EPOCH":"10303","TIME_SYSTEM":"UTC","OBJECT_NAME":"STARLINK-2642","EPOCH":"2023-03-21T05:40:45.327936","PERIAPSIS":"545.954","BSTAR":"0.00261510000000","RA_OF_ASC_NODE":"19.9142","TLE_LINE1":"1 48437U 21040K   23080.23663574  .00038965  00000-0  26151-2 0  9990","MEAN_ELEMENT_THEORY":"SGP4","MEAN_ANOMALY":"240.3687","CLASSIFICATION_TYPE":"U","DECAY_DATE":null,"NORAD_CAT_ID":"48437","APOAPSIS":"548.018","ARG_OF_PERICENTER":"119.7451","PERIOD":"95.587","EPHEMERIS_TYPE":"0","FILE":"3866730","TLE_LINE2":"2 48437  53.0545  19.9142 0001490 119.7451 240.3687 15.06474218103033","REF_FRAME":"TEME","MEAN_MOTION_DOT":"0.00038965"},{"CENTER_NAME":"EARTH","OBJECT_TYPE":"PAYLOAD","ELEMENT_SET_NO":"999","MEAN_MOTION_DDOT":"0.0000000000000","ECCENTRICITY":"0.00010540","INCLINATION":"53.0554","OBJECT_ID":"2021-040L","SITE":"AFETR","COUNTRY_CODE":"US","LAUNCH_DATE":"2021-05-09","SEMIMAJOR_AXIS":"6925.376","RCS_SIZE":"LARGE","MEAN_MOTION":"15.06391119","APOAPSIS":"547.971","ARG_OF_PERICENTER":"138.9977","NORAD_CAT_ID":"48438","CLASSIFICATION_TYPE":"U","MEAN_ANOMALY":"221.1091","DECAY_DATE":null,"REF_FRAME":"TEME","MEAN_MOTION_DOT":"0.00021509","FILE":"3866953","TLE_LINE2":"2 48438  53.0554   6.8847 0001054 138.9977 221.1091 15.06391119103273","EPHEMERIS_TYPE":"0","PERIOD":"95.593","TIME_SYSTEM":"UTC","OBJECT_NAME":"STARLINK-2640","GP_ID":"228618291","REV_AT_EPOCH":"10327","MEAN_ELEMENT_THEORY":"SGP4","TLE_LINE1":"1 48438U 21040L   23080.91210544  .00021509  00000-0  14588-2 0  9998","BSTAR":"0.00145880000000","RA_OF_ASC_NODE":"6.8847","PERIAPSIS":"546.511","EPOCH":"2023-03-21T21:53:25.910016"},{"BSTAR":"0.00088608000000","RA_OF_ASC_NODE":"6.9017","EPOCH":"2023-03-21T21:48:07.164864","PERIAPSIS":"546.068","MEAN_ELEMENT_THEORY":"SGP4","TLE_LINE1":"1 48439U 21040M   23080.90841626  .00012936  00000-0  88608-3 0  9998","GP_ID":"228619542","REV_AT_EPOCH":"10327","TIME_SYSTEM":"UTC","OBJECT_NAME":"STARLINK-2583","EPHEMERIS_TYPE":"0","PERIOD":"95.593","MEAN_MOTION_DOT":"0.00012936","REF_FRAME":"TEME","FILE":"3866953","TLE_LINE2":"2 48439  53.0566   6.9017 0001716 112.5741 247.5429 15.06386149103273","MEAN_ANOMALY":"247.5429","CLASSIFICATION_TYPE":"U","DECAY_DATE":null,"APOAPSIS":"548.444","ARG_OF_PERICENTER":"112.5741","NORAD_CAT_ID":"48439","SEMIMAJOR_AXIS":"6925.391","LAUNCH_DATE":"2021-05-09","RCS_SIZE":"LARGE","MEAN_MOTION":"15.06386149","COUNTRY_CODE":"US","OBJECT_ID":"2021-040M","INCLINATION":"53.0566","SITE":"AFETR","ECCENTRICITY":"0.00017160","ELEMENT_SET_NO":"999","MEAN_MOTION_DDOT":"0.0000000000000","CENTER_NAME":"EARTH","OBJECT_TYPE":"PAYLOAD"},{"MEAN_ELEMENT_THEORY":"SGP4","TLE_LINE1":"1 48440U 21040N   23080.24122779  .00038941  00000-0  26123-2 0  9995","RA_OF_ASC_NODE":"9.8957","BSTAR":"0.00261230000000","PERIAPSIS":"545.778","EPOCH":"2023-03-21T05:47:22.081056","OBJECT_NAME":"STARLINK-2682","TIME_SYSTEM":"UTC","REV_AT_EPOCH":"10317","GP_ID":"228587539","MEAN_MOTION_DOT":"0.00038941","REF_FRAME":"TEME","TLE_LINE2":"2 48440  53.0570   9.8957 0001667 118.3830 241.7327 15.06491733103171","FILE":"3866730","PERIOD":"95.586","EPHEMERIS_TYPE":"0","ARG_OF_PERICENTER":"118.3830","APOAPSIS":"548.087","NORAD_CAT_ID":"48440","DECAY_DATE":null,"CLASSIFICATION_TYPE":"U","MEAN_ANOMALY":"241.7327","COUNTRY_CODE":"US","RCS_SIZE":"LARGE","SEMIMAJOR_AXIS":"6925.067","LAUNCH_DATE":"2021-05-09","MEAN_MOTION":"15.06491733","INCLINATION":"53.0570","OBJECT_ID":"2021-040N","SITE":"AFETR","ELEMENT_SET_NO":"999","MEAN_MOTION_DDOT":"0.0000000000000","ECCENTRICITY":"0.00016670","CENTER_NAME":"EARTH","OBJECT_TYPE":"PAYLOAD"},{"COUNTRY_CODE":"US","MEAN_MOTION":"15.06396823","SEMIMAJOR_AXIS":"6925.358","LAUNCH_DATE":"2021-05-09","RCS_SIZE":"LARGE","SITE":"AFETR","OBJECT_ID":"2021-040P","INCLINATION":"53.0569","MEAN_MOTION_DDOT":"0.0000000000000","ELEMENT_SET_NO":"999","ECCENTRICITY":"0.00021360","OBJECT_TYPE":"PAYLOAD","CENTER_NAME":"EARTH","TLE_LINE1":"1 48441U 21040P   23080.90103920  .00018484  00000-0  12566-2 0  9992","MEAN_ELEMENT_THEORY":"SGP4","EPOCH":"2023-03-21T21:37:29.786880","PERIAPSIS":"545.744","BSTAR":"0.00125660000000","RA_OF_ASC_NODE":"6.9345","TIME_SYSTEM":"UTC","OBJECT_NAME":"STARLINK-2702","GP_ID":"228618541","REV_AT_EPOCH":"10327","FILE":"3866953","TLE_LINE2":"2 48441  53.0569   6.9345 0002136 123.0245 237.0950 15.06396823103279","REF_FRAME":"TEME","MEAN_MOTION_DOT":"0.00018484","PERIOD":"95.592","EPHEMERIS_TYPE":"0","NORAD_CAT_ID":"48441","ARG_OF_PERICENTER":"123.0245","APOAPSIS":"548.703","CLASSIFICATION_TYPE":"U","MEAN_ANOMALY":"237.0950","DECAY_DATE":null}];
